{"type": "FeatureCollection", "features": [ {"type": "Feature", "properties": {"norad_id": 49810, "name": "GSAT0224 (GALILEO 28)", "group": "gnss", "lat": 16.177486211872914, "lon": 155.79369036831528, "alt_km": 23221.520136856976, "timestamp": "2025-12-17T19:34:08.282514+00:00", "meta": {"OBJECT_NAME": "GSAT0224 (GALILEO 28)", "OBJECT_ID": "2021-116B", "EPOCH": "2025-12-16T23:13:52.406688", "MEAN_MOTION": 1.70476122, "ECCENTRICITY": 0.00037953, "INCLINATION": 57.2194, "RA_OF_ASC_NODE": 346.5971, "ARG_OF_PERICENTER": 257.7514, "MEAN_ANOMALY": 102.8295, "EPHEMERIS_TYPE": 0, "CLASSIFICATION_TYPE": "U", "NORAD_CAT_ID": 49810, "ELEMENT_SET_NO": 999, "REV_AT_EPOCH": 2510, "BSTAR": 0, "MEAN_MOTION_DOT": -7.9e-07, "MEAN_MOTION_DDOT": 0}, "tle": {"line1": "1 49810U 21116B   25350.96796767 -.00000079  00000+0  00000+0 0  9990", "line2": "2 49810  57.2194 346.5971 0003795 257.7514 102.8295  1.70476122 25107"}}, "geometry": {"type": "Point", "coordinates": [155.79369036831528, 16.177486211872914]}}, {"type": "Feature", "properties": {"norad_id": 52984, "name": "COSMOS 2557 (706K)", "group": "gnss", "lat": -49.81450194918386, "lon": 175.42078520108402, "alt_km": 19108.59645329687, "timestamp": "2025-12-17T19:34:08.282525+00:00", "meta": {"OBJECT_NAME": "COSMOS 2557 (706K)", "OBJECT_ID": "2022-075A", "EPOCH": "2025-12-16T02:19:59.542752", "MEAN_MOTION": 2.13101842, "ECCENTRICITY": 0.001368, "INCLINATION": 64.4074, "RA_OF_ASC_NODE": 320.9331, "ARG_OF_PERICENTER": 277.1677, "MEAN_ANOMALY": 82.672, "EPHEMERIS_TYPE": 0, "CLASSIFICATION_TYPE": "U", "NORAD_CAT_ID": 52984, "ELEMENT_SET_NO": 999, "REV_AT_EPOCH": 2681, "BSTAR": 0, "MEAN_MOTION_DOT": -7e-07, "MEAN_MOTION_DDOT": 0}, "tle": {"line1": "1 52984U 22075A   25350.09721693 -.00000070  00000+0  00000+0 0  9992", "line2": "2 52984  64.4074 320.9331 0013680 277.1677  82.6720  2.13101842 26815"}}, "geometry": {"type": "Point", "coordinates": [175.42078520108402, -49.81450194918386]}}, {"type": "Feature", "properties": {"norad_id": 54031, "name": "COSMOS 2559 (707K)", "group": "gnss", "lat": 15.092178730941663, "lon": -31.618825581273907, "alt_km": 19158.342608382383, "timestamp": "2025-12-17T19:34:08.282540+00:00", "meta": {"OBJECT_NAME": "COSMOS 2559 (707K)", "OBJECT_ID": "2022-130A", "EPOCH": "2025-12-14T00:56:40.379136", "MEAN_MOTION": 2.13101379, "ECCENTRICITY": 0.00117642, "INCLINATION": 64.3815, "RA_OF_ASC_NODE": 321.0953, "ARG_OF_PERICENTER": 192.3475, "MEAN_ANOMALY": 167.6228, "EPHEMERIS_TYPE": 0, "CLASSIFICATION_TYPE": "U", "NORAD_CAT_ID": 54031, "ELEMENT_SET_NO": 999, "REV_AT_EPOCH": 2474, "BSTAR": 0, "MEAN_MOTION_DOT": -6.6e-07, "MEAN_MOTION_DDOT": 0}, "tle": {"line1": "1 54031U 22130A   25348.03935624 -.00000066  00000+0  00000+0 0  9996", "line2": "2 54031  64.3815 321.0953 0011764 192.3475 167.6228  2.13101379 24741"}}, "geometry": {"type": "Point", "coordinates": [-31.618825581273907, 15.092178730941663]}}, {"type": "Feature", "properties": {"norad_id": 54377, "name": "COSMOS 2564 (761)", "group": "gnss", "lat": 38.69003641199018, "lon": -3.491487273281861, "alt_km": 19117.23718433356, "timestamp": "2025-12-17T19:34:08.282553+00:00", "meta": {"OBJECT_NAME": "COSMOS 2564 (761)", "OBJECT_ID": "2022-161A", "EPOCH": "2025-12-16T16:46:44.679072", "MEAN_MOTION": 2.13102099, "ECCENTRICITY": 0.00085776, "INCLINATION": 64.7384, "RA_OF_ASC_NODE": 198.7673, "ARG_OF_PERICENTER": 204.2808, "MEAN_ANOMALY": 155.7608, "EPHEMERIS_TYPE": 0, "CLASSIFICATION_TYPE": "U", "NORAD_CAT_ID": 54377, "ELEMENT_SET_NO": 999, "REV_AT_EPOCH": 2374, "BSTAR": 0, "MEAN_MOTION_DOT": 1.11e-06, "MEAN_MOTION_DDOT": 0}, "tle": {"line1": "1 54377U 22161A   25350.69912823  .00000111  00000+0  00000+0 0  9994", "line2": "2 54377  64.7384 198.7673 0008577 204.2808 155.7608  2.13102099 23747"}}, "geometry": {"type": "Point", "coordinates": [-3.491487273281861, 38.69003641199018]}}, {"type": "Feature", "properties": {"norad_id": 55268, "name": "GPS BIII-6  (PRN 28)", "group": "gnss", "lat": -49.44127372457904, "lon": 30.306296898517665, "alt_km": 20191.49842145774, "timestamp": "2025-12-17T19:34:08.282564+00:00", "meta": {"OBJECT_NAME": "GPS BIII-6  (PRN 28)", "OBJECT_ID": "2023-009A", "EPOCH": "2025-12-17T05:26:38.724576", "MEAN_MOTION": 2.00555443, "ECCENTRICITY": 0.00036765, "INCLINATION": 55.1057, "RA_OF_ASC_NODE": 155.6691, "ARG_OF_PERICENTER": 356.3023, "MEAN_ANOMALY": 186.6763, "EPHEMERIS_TYPE": 0, "CLASSIFICATION_TYPE": "U", "NORAD_CAT_ID": 55268, "ELEMENT_SET_NO": 999, "REV_AT_EPOCH": 2159, "BSTAR": 0, "MEAN_MOTION_DOT": 7.9e-07, "MEAN_MOTION_DDOT": 0}, "tle": {"line1": "1 55268U 23009A   25351.22683709  .00000079  00000+0  00000+0 0  9997", "line2": "2 55268  55.1057 155.6691 0003676 356.3023 186.6763  2.00555443 21590"}}, "geometry": {"type": "Point", "coordinates": [30.306296898517665, -49.44127372457904]}}, {"type": "Feature", "properties": {"norad_id": 56564, "name": "BEIDOU-3 G4 (C62)", "group": "gnss", "lat": -0.6894277975494659, "lon": -179.72770801854352, "alt_km": 35774.75890380104, "timestamp": "2025-12-17T19:34:08.282576+00:00", "meta": {"OBJECT_NAME": "BEIDOU-3 G4 (C62)", "OBJECT_ID": "2023-066A", "EPOCH": "2025-12-17T06:44:38.482944", "MEAN_MOTION": 1.00271742, "ECCENTRICITY": 0.00027703, "INCLINATION": 0.8052, "RA_OF_ASC_NODE": 302.4125, "ARG_OF_PERICENTER": 227.6484, "MEAN_ANOMALY": 177.3219, "EPHEMERIS_TYPE": 0, "CLASSIFICATION_TYPE": "U", "NORAD_CAT_ID": 56564, "ELEMENT_SET_NO": 999, "REV_AT_EPOCH": 957, "BSTAR": 0, "MEAN_MOTION_DOT": -8.5e-07, "MEAN_MOTION_DDOT": 0}, "tle": {"line1": "1 56564U 23066A   25351.28100096 -.00000085  00000+0  00000+0 0  9997", "line2": "2 56564   0.8052 302.4125 0002770 227.6484 177.3219  1.00271742  9574"}}, "geometry": {"type": "Point", "coordinates": [-179.72770801854352, -0.6894277975494659]}}, {"type": "Feature", "properties": {"norad_id": 56759, "name": "NVS-01 (IRNSS-1J)", "group": "gnss", "lat": -2.5471320001416426, "lon": 149.62661928445777, "alt_km": 35802.53875462767, "timestamp": "2025-12-17T19:34:08.282588+00:00", "meta": {"OBJECT_NAME": "NVS-01 (IRNSS-1J)", "OBJECT_ID": "2023-076A", "EPOCH": "2025-12-17T05:22:53.239584", "MEAN_MOTION": 1.0027547, "ECCENTRICITY": 0.00087977, "INCLINATION": 2.6075, "RA_OF_ASC_NODE": 251.4372, "ARG_OF_PERICENTER": 15.5449, "MEAN_ANOMALY": 29.3604, "EPHEMERIS_TYPE": 0, "CLASSIFICATION_TYPE": "U", "NORAD_CAT_ID": 56759, "ELEMENT_SET_NO": 999, "REV_AT_EPOCH": 929, "BSTAR": 0, "MEAN_MOTION_DOT": -3.07e-06, "MEAN_MOTION_DDOT": 0}, "tle": {"line1": "1 56759U 23076A   25351.22422731 -.00000307  00000+0  00000+0 0  9998", "line2": "2 56759   2.6075 251.4372 0008797  15.5449  29.3604  1.00275470  9297"}}, "geometry": {"type": "Point", "coordinates": [149.62661928445777, -2.5471320001416426]}}, {"type": "Feature", "properties": {"norad_id": 57517, "name": "COSMOS 2569 (703K)", "group": "gnss", "lat": 47.25823176280489, "lon": -131.21810804711382, "alt_km": 19150.078585077124, "timestamp": "2025-12-17T19:34:08.282599+00:00", "meta": {"OBJECT_NAME": "COSMOS 2569 (703K)", "OBJECT_ID": "2023-114A", "EPOCH": "2025-12-17T04:21:40.359168", "MEAN_MOTION": 2.13104058, "ECCENTRICITY": 0.00106912, "INCLINATION": 65.1965, "RA_OF_ASC_NODE": 78.7634, "ARG_OF_PERICENTER": 286.983, "MEAN_ANOMALY": 72.918, "EPHEMERIS_TYPE": 0, "CLASSIFICATION_TYPE": "U", "NORAD_CAT_ID": 57517, "ELEMENT_SET_NO": 999, "REV_AT_EPOCH": 1838, "BSTAR": 0, "MEAN_MOTION_DOT": -5e-07, "MEAN_MOTION_DDOT": 0}, "tle": {"line1": "1 57517U 23114A   25351.18171712 -.00000050  00000+0  00000+0 0  9994", "line2": "2 57517  65.1965  78.7634 0010691 286.9830  72.9180  2.13104058 18388"}}, "geometry": {"type": "Point", "coordinates": [-131.21810804711382, 47.25823176280489]}}, {"type": "Feature", "properties": {"norad_id": 58654, "name": "BEIDOU-3 M28 (C50)", "group": "gnss", "lat": 4.28824905655676, "lon": 71.38348569827762, "alt_km": 21528.43562899034, "timestamp": "2025-12-17T19:34:08.282610+00:00", "meta": {"OBJECT_NAME": "BEIDOU-3 M28 (C50)", "OBJECT_ID": "2023-207A", "EPOCH": "2025-12-15T15:50:05.112096", "MEAN_MOTION": 1.8622982, "ECCENTRICITY": 0.00025263, "INCLINATION": 55.587, "RA_OF_ASC_NODE": 68.5025, "ARG_OF_PERICENTER": 270.8998, "MEAN_ANOMALY": 89.0909, "EPHEMERIS_TYPE": 0, "CLASSIFICATION_TYPE": "U", "NORAD_CAT_ID": 58654, "ELEMENT_SET_NO": 999, "REV_AT_EPOCH": 1342, "BSTAR": 0, "MEAN_MOTION_DOT": -8.4e-07, "MEAN_MOTION_DDOT": 0}, "tle": {"line1": "1 58654U 23207A   25349.65978139 -.00000084  00000+0  00000+0 0  9994", "line2": "2 58654  55.5870  68.5025 0002526 270.8998  89.0909  1.86229820 13427"}}, "geometry": {"type": "Point", "coordinates": [71.38348569827762, 4.28824905655676]}}, {"type": "Feature", "properties": {"norad_id": 58655, "name": "BEIDOU-3 M26 (C48)", "group": "gnss", "lat": 31.396244986948275, "lon": -136.25893421083535, "alt_km": 21529.02815119985, "timestamp": "2025-12-17T19:34:08.282623+00:00", "meta": {"OBJECT_NAME": "BEIDOU-3 M26 (C48)", "OBJECT_ID": "2023-207B", "EPOCH": "2025-12-15T23:51:52.176960", "MEAN_MOTION": 1.86231301, "ECCENTRICITY": 0.00039507, "INCLINATION": 55.5893, "RA_OF_ASC_NODE": 68.4775, "ARG_OF_PERICENTER": 256.9, "MEAN_ANOMALY": 103.0764, "EPHEMERIS_TYPE": 0, "CLASSIFICATION_TYPE": "U", "NORAD_CAT_ID": 58655, "ELEMENT_SET_NO": 999, "REV_AT_EPOCH": 1341, "BSTAR": 0, "MEAN_MOTION_DOT": -8.2e-07, "MEAN_MOTION_DDOT": 0}, "tle": {"line1": "1 58655U 23207B   25349.99435390 -.00000082  00000+0  00000+0 0  9997", "line2": "2 58655  55.5893  68.4775 0003950 256.9000 103.0764  1.86231301 13417"}}, "geometry": {"type": "Point", "coordinates": [-136.25893421083535, 31.396244986948275]}}]}